SCD 1                   
1 22490U 93009B   26193.99060258  .00000288  00000+0  28089-4 0  9996
2 22490  24.9704  48.2532 0042017  51.2320  94.1420 14.46128066764854
TECHSAT 1B (GO-32)      
1 25397U 98043D   26194.89716845  .00000014  00000+0  26180-4 0  9995
2 25397  99.0084 188.3313 0002155 116.5824 243.5575 14.24433207455134
SCD 2                   
1 25504U 98060A   26194.55417704  .00000281  00000+0  27734-4 0  9991
2 25504  24.9948 269.5575 0016949  42.4080 101.2086 14.45534519464148
DLR-TUBSAT              
1 25757U 99029B   26194.88501414  .00000011  00000+0  14538-4 0  9994
2 25757  98.6710 191.2692 0012962 269.0526  90.9183 14.52433124437125
TERRA                   
1 25994U 99068A   26194.80852102  .00000201  00000+0  49959-4 0  9991
2 25994  97.9442 243.2973 0003358 125.4907  12.2474 14.61123087413497
MAROC-TUBSAT            
1 27004U 01056D   26194.72662218 -.00000033  00000+0  15557-4 0  9994
2 27004  99.8096  12.0881 0020610  75.7177 348.0099 13.70263501229823
AQUA                    
1 27424U 02022A   26194.87755154  .00000377  00000+0  84721-4 0  9991
2 27424  98.4294 164.6969 0000893 110.6156 301.1558 14.62195986287177
SHIYAN-1 (SY-1)         
1 28220U 04012A   26194.79597720  .00007914  00000+0  23993-3 0  9998
2 28220  97.8693 274.6050 0004066 281.8457  78.2329 15.34429357215173
AURA                    
1 28376U 04026A   26194.89499045  .00000370  00000+0  84657-4 0  9991
2 28376  98.3430 151.5721 0001291  92.5478 267.5870 14.61366746170114
IRS-P5 (CARTOSAT-1)     
1 28649U 05017A   26194.65266510  .00000605  00000+0  66278-4 0  9998
2 28649  97.5307 216.5165 0001482  55.3068 304.8290 14.91114830147763
SINAH 1                 
1 28893U 05043D   26194.84300771  .00000137  00000+0  35450-4 0  9995
2 28893  98.2891 329.3266 0014302 187.7572 172.3411 14.64175001104426
RESURS-DK 1             
1 29228U 06021A   26194.60795400  .00000955  00000+0  59601-4 0  9998
2 29228  69.9309 271.1556 0007014 272.7171  87.3192 15.13315847106574
ARIRANG-2 (KOMPSAT-2)   
1 29268U 06031A   26194.88113442  .00000253  00000+0  55936-4 0  9991
2 29268  97.8310  18.0373 0014386 355.1463 136.4742 14.64675730 65380
LAPAN-TUBSAT            
1 29709U 07001A   26194.85263909 -.00000075  00000+0 -20037-5 0  9999
2 29709  98.1349 194.6790 0013608  97.3597 262.9164 14.85975550 55118
HAIYANG-1B              
1 31113U 07010A   26194.85426390  .00000027  00000+0  25968-4 0  9998
2 31113  98.3514 175.6675 0014602 119.4943 240.7699 14.31033072  4456
COSMO-SKYMED 1          
1 31598U 07023A   26194.80190568  .00001327  00000+0  11993-3 0  9995
2 31598  97.8844  26.8829 0001309 103.8934 256.2433 14.97215122 33773
TERRASAR-X              
1 31698U 07026A   26188.47915537  .00000240  00000+0  14624-4 0  9994
2 31698  97.4461 195.8972 0001878  86.9540 273.1909 15.19153986 56300
WORLDVIEW-1 (WV-1)      
1 32060U 07041A   26194.87673220  .00003607  00000+0  14942-3 0  9998
2 32060  97.3903 314.2452 0001402 212.0366 148.0787 15.24550132 46948
YAOGAN-3                
1 32289U 07055A   26194.84032950  .00001615  00000+0  16951-3 0  9991
2 32289  97.8149 224.4543 0001640  81.1373 279.0030 14.90879643  9845
COSMO-SKYMED 2          
1 32376U 07059A   26194.82770006  .00000185  00000+0  29769-4 0  9994
2 32376  97.8892  18.0401 0001428  94.3008 265.8369 14.82149851  5950
RADARSAT-2              
1 32382U 07061A   26194.90662692 -.00000005  00000+0  14913-4 0  9991
2 32382  98.5780 201.4572 0001322  84.7113 275.4220 14.29983026969774
CARTOSAT-2A             
1 32783U 08021A   26194.83304050  .00000598  00000+0  87144-4 0  9998
2 32783  97.7626 242.6303 0012617  31.4062 328.7901 14.79276149982745
HUANJING 1A (HJ-1A)     
1 33320U 08041A   26194.86706226  .00001027  00000+0  12897-3 0  9992
2 33320  97.6690 179.6759 0020463  53.6790 306.6310 14.84049082962364
HUANJING 1B (HJ-1B)     
1 33321U 08041B   26194.91584447  .00000476  00000+0  63667-4 0  9997
2 33321  97.6526 182.8131 0037908  95.2790 265.2751 14.83362933962379
GEOEYE 1                
1 33331U 08042A   26194.79494619  .00000185  00000+0  43679-4 0  9994
2 33331  98.1328 268.4072 0004038 351.5173   8.5961 14.64648677954049
THEOS                   
1 33396U 08049A   26194.88294566 -.00000339  00000+0 -13898-3 0  9993
2 33396  98.5566 251.2978 0001151  85.8593 274.2715 14.20135090921752
COSMO-SKYMED 3          
1 33412U 08054A   26194.90120308  .00001744  00000+0  12028-3 0  9996
2 33412  97.8252  53.9145 0015680 170.6149 189.5374 15.07106760960963
YAOGAN-4                
1 33446U 08061A   26194.81446249  .00000468  00000+0  63760-4 0  9998
2 33446  97.9303 128.1290 0013960 350.2314   9.8626 14.83249773949611
GOSAT (IBUKI)           
1 33492U 09002A   26194.86577429  .00000337  00000+0  67870-4 0  9996
2 33492  98.0913 305.6156 0001114  91.5028 268.6304 14.67538848935371
DEIMOS-1                
1 35681U 09041A   26194.84213955  .00000213  00000+0  38467-4 0  9993
2 35681  97.7425 350.9186 0002769  93.7308 266.4218 14.75263281910812
DUBAISAT-1              
1 35682U 09041B   26194.88226934  .00000391  00000+0  65451-4 0  9999
2 35682  98.0081 327.8526 0010016 352.9921   7.1147 14.75165538909030
